OBJECT_NAME,OBJECT_ID,EPOCH,MEAN_MOTION,ECCENTRICITY,INCLINATION,RA_OF_ASC_NODE,ARG_OF_PERICENTER,MEAN_ANOMALY,EPHEMERIS_TYPE,CLASSIFICATION_TYPE,NORAD_CAT_ID,ELEMENT_SET_NO,REV_AT_EPOCH,BSTAR,MEAN_MOTION_DOT,MEAN_MOTION_DDOT
ONEWEB-0012,2019-010A,2026-06-24T04:03:12.528864,13.16595365,.00018429,87.9089,227.3988,85.8306,274.3036,0,U,44057,999,35248,.15961929E-4,.19E-6,0
ONEWEB-0010,2019-010B,2026-06-24T04:39:41.268960,13.16595443,.00019933,87.9088,227.3897,106.8637,253.2713,0,U,44058,999,35253,-.70919486E-4,-.14E-6,0
ONEWEB-0008,2019-010C,2026-06-24T03:26:43.015488,13.16596404,.00022967,87.9094,227.3951,95.1534,264.9859,0,U,44059,999,35264,.16573046E-3,.76E-6,0
ONEWEB-0007,2019-010D,2026-06-24T04:25:15.146112,13.15549152,.0001711,87.9000,257.8275,102.4259,257.7063,0,U,44060,999,35229,-.22123717E-3,-.7E-6,0
ONEWEB-0006,2019-010E,2026-06-24T04:30:56.070144,13.15549950,.00019465,87.9009,257.7914,103.9640,256.1707,0,U,44061,999,35234,-.21043491E-3,-.66E-6,0
ONEWEB-0011,2019-010F,2026-06-24T03:45:18.948384,13.15548045,.00021675,87.9011,257.8074,103.5971,256.5401,0,U,44062,999,35233,.13387758E-3,.63E-6,0
ONEWEB-0013,2020-008A,2026-06-24T04:47:47.212800,13.09453526,.0001929,87.8507,51.4101,51.0944,309.0355,0,U,45131,999,30698,.70545612E-3,.256E-5,0
ONEWEB-0017,2020-008B,2026-06-24T04:15:23.675040,13.10365098,.0001756,87.8828,34.8765,91.1290,269.0038,0,U,45132,999,30886,-.17875979E-2,-.611E-5,0
ONEWEB-0020,2020-008C,2026-06-24T03:31:27.701760,13.10450519,.00018872,87.8827,34.8806,82.4408,277.6934,0,U,45133,999,30925,-.13004717E-1,-.453E-4,0
ONEWEB-0021,2020-008D,2026-06-24T02:03:27.041760,13.10425718,.00016233,87.8824,34.9085,83.3780,276.7532,0,U,45134,999,30955,-.88541626E-3,-.297E-5,0
ONEWEB-0023,2020-008F,2026-06-24T02:19:20.804448,13.10371341,.00019973,87.8828,34.8892,80.8686,279.2668,0,U,45136,999,30898,.21829862E-3,.89E-6,0
ONEWEB-0024,2020-008G,2026-06-24T03:29:11.937984,13.10443332,.00016857,87.8834,34.8719,87.0945,273.0375,0,U,45137,999,30915,-.15551174E-1,-.5418E-4,0
ONEWEB-0025,2020-008H,2026-06-24T03:28:47.131680,13.10460583,.00020984,87.8831,34.8615,89.4118,270.7250,0,U,45138,999,30948,-.85583213E-2,-.2978E-4,0
ONEWEB-0026,2020-008J,2026-06-24T06:06:00.040032,13.11415156,.00018821,87.8882,19.6611,91.6511,268.4833,0,U,45139,999,31203,.15336627E-2,.556E-5,0
ONEWEB-0028,2020-008K,2026-06-24T01:50:50.982144,13.11417609,.00017805,87.8879,19.7047,67.3894,292.7423,0,U,45140,999,30952,.28755263E-3,.115E-5,0
ONEWEB-0032,2020-008L,2026-06-24T04:18:00.970560,13.10358696,.00019455,87.8829,34.8778,69.2889,290.8447,0,U,45141,999,30921,-.16052496E-2,-.548E-5,0
ONEWEB-0033,2020-008M,2026-06-24T03:41:11.735520,13.10427487,.00011228,87.8787,34.8880,110.5362,249.5886,0,U,45142,999,30912,-.11235119E-1,-.3911E-4,0
ONEWEB-0035,2020-008N,2026-06-24T04:10:41.179008,13.10377118,.00018003,87.8824,34.8783,87.3480,272.7854,0,U,45143,999,30885,-.21647734E-2,-.743E-5,0
ONEWEB-0036,2020-008P,2026-06-24T03:37:57.573120,13.09978697,.00018823,87.8839,34.8968,77.9465,282.1873,0,U,45144,999,30927,.10358864E-2,.372E-5,0
ONEWEB-0038,2020-008Q,2026-06-24T06:20:50.552736,13.11414415,.0000294,87.8896,19.6688,150.0939,210.0206,0,U,45145,999,31125,.49835453E-3,.189E-5,0
ONEWEB-0039,2020-008R,2026-06-24T00:06:10.644768,13.10448247,.00017806,87.8811,34.9096,67.5775,292.5541,0,U,45146,999,30905,.60914158E-3,.226E-5,0
ONEWEB-0040,2020-008S,2026-06-24T03:36:18.165600,13.10434898,.00011455,87.8799,34.8898,79.8071,280.3186,0,U,45147,999,30877,.1191181E-2,.429E-5,0
ONEWEB-0043,2020-008U,2026-06-24T03:38:47.083776,13.10416322,.00021689,87.8830,34.8795,65.9619,294.1735,0,U,45149,999,30909,-.15834386E-1,-.5515E-4,0
ONEWEB-0044,2020-008V,2026-06-24T00:40:20.932320,13.10352668,.00017598,87.8839,34.9051,78.6504,281.4821,0,U,45150,999,30937,-.16008025E-2,-.546E-5,0
ONEWEB-0045,2020-008W,2026-06-24T06:13:19.571520,13.11414623,.00017434,87.8890,19.6521,83.7559,276.3768,0,U,45151,999,31133,.10266716E-2,.377E-5,0
ONEWEB-0047,2020-008X,2026-06-24T04:10:17.615136,13.10376389,.00016639,87.8835,34.8752,89.0677,271.0641,0,U,45152,999,30911,-.23328804E-2,-.802E-5,0
ONEWEB-0048,2020-008Y,2026-06-24T04:03:11.782368,13.10399099,.00016283,87.8821,34.8959,86.4265,273.7049,0,U,45153,999,30872,-.19306387E-2,-.661E-5,0
ONEWEB-0049,2020-008Z,2026-06-24T04:07:51.490272,13.10376331,.0001783,87.8825,34.8861,94.1146,266.0186,0,U,45154,999,30894,-.50119511E-2,-.1737E-4,0
ONEWEB-0051,2020-008AA,2026-06-24T06:10:53.675616,13.11416066,.00014751,87.8875,19.6594,87.6807,272.4490,0,U,45155,999,31201,.23822594E-2,.857E-5,0
ONEWEB-0052,2020-008AB,2026-06-24T02:47:36.023424,13.10334651,.00022182,87.8822,34.8834,74.2598,285.8774,0,U,45156,999,30884,.97490554E-2,.3415E-4,0
