ONEWEB-0012             
1 44057U 19010A   26175.16889501  .00000019  00000+0  15962-4 0  9996
2 44057  87.9089 227.3988 0001842  85.8306 274.3036 13.16595365352488
ONEWEB-0010             
1 44058U 19010B   26175.19422765 -.00000014  00000+0 -70919-4 0  9995
2 44058  87.9088 227.3897 0001993 106.8637 253.2713 13.16595443352536
ONEWEB-0008             
1 44059U 19010C   26175.14355342  .00000076  00000+0  16573-3 0  9998
2 44059  87.9094 227.3951 0002296  95.1534 264.9859 13.16596404352648
ONEWEB-0007             
1 44060U 19010D   26175.18420308 -.00000070  00000+0 -22124-3 0  9994
2 44060  87.9000 257.8275 0001711 102.4259 257.7063 13.15549152352296
ONEWEB-0006             
1 44061U 19010E   26175.18814896 -.00000066  00000+0 -21043-3 0  9998
2 44061  87.9009 257.7914 0001946 103.9640 256.1707 13.15549950352345
ONEWEB-0011             
1 44062U 19010F   26175.15646931  .00000063  00000+0  13388-3 0  9997
2 44062  87.9011 257.8074 0002167 103.5971 256.5401 13.15548045352334
ONEWEB-0013             
1 45131U 20008A   26175.19985200  .00000256  00000+0  70546-3 0  9996
2 45131  87.8507  51.4101 0001929  51.0944 309.0355 13.09453526306986
ONEWEB-0017             
1 45132U 20008B   26175.17735735 -.00000611  00000+0 -17876-2 0  9994
2 45132  87.8828  34.8765 0001756  91.1290 269.0038 13.10365098308861
ONEWEB-0020             
1 45133U 20008C   26175.14684840 -.00004530  00000+0 -13005-1 0  9995
2 45133  87.8827  34.8806 0001887  82.4408 277.6934 13.10450519309253
ONEWEB-0021             
1 45134U 20008D   26175.08572965 -.00000297  00000+0 -88542-3 0  9999
2 45134  87.8824  34.9085 0001623  83.3780 276.7532 13.10425718309552
ONEWEB-0023             
1 45136U 20008F   26175.09676857  .00000089  00000+0  21830-3 0  9991
2 45136  87.8828  34.8892 0001997  80.8686 279.2668 13.10371341308980
ONEWEB-0024             
1 45137U 20008G   26175.14527706 -.00005418  00000+0 -15551-1 0  9990
2 45137  87.8834  34.8719 0001685  87.0945 273.0375 13.10443332309154
ONEWEB-0025             
1 45138U 20008H   26175.14498995 -.00002978  00000+0 -85583-2 0  9999
2 45138  87.8831  34.8615 0002098  89.4118 270.7250 13.10460583309483
ONEWEB-0026             
1 45139U 20008J   26175.25416713  .00000556  00000+0  15337-2 0  9998
2 45139  87.8882  19.6611 0001882  91.6511 268.4833 13.11415156312032
ONEWEB-0028             
1 45140U 20008K   26175.07697896  .00000115  00000+0  28755-3 0  9993
2 45140  87.8879  19.7047 0001780  67.3894 292.7423 13.11417609309525
ONEWEB-0032             
1 45141U 20008L   26175.17917790 -.00000548  00000+0 -16052-2 0  9991
2 45141  87.8829  34.8778 0001945  69.2889 290.8447 13.10358696309218
ONEWEB-0033             
1 45142U 20008M   26175.15360805 -.00003911  00000+0 -11235-1 0  9993
2 45142  87.8787  34.8880 0001122 110.5362 249.5886 13.10427487309122
ONEWEB-0035             
1 45143U 20008N   26175.17408772 -.00000743  00000+0 -21648-2 0  9992
2 45143  87.8824  34.8783 0001800  87.3480 272.7854 13.10377118308859
ONEWEB-0036             
1 45144U 20008P   26175.15136080  .00000372  00000+0  10359-2 0  9994
2 45144  87.8839  34.8968 0001882  77.9465 282.1873 13.09978697309279
ONEWEB-0038             
1 45145U 20008Q   26175.26447399  .00000189  00000+0  49835-3 0  9993
2 45145  87.8896  19.6688 0000294 150.0939 210.0206 13.11414415311255
ONEWEB-0039             
1 45146U 20008R   26175.00428987  .00000226  00000+0  60914-3 0  9991
2 45146  87.8811  34.9096 0001780  67.5775 292.5541 13.10448247309058
ONEWEB-0040             
1 45147U 20008S   26175.15021025  .00000429  00000+0  11912-2 0  9998
2 45147  87.8799  34.8898 0001145  79.8071 280.3186 13.10434898308778
ONEWEB-0043             
1 45149U 20008U   26175.15193384 -.00005515  00000+0 -15834-1 0  9997
2 45149  87.8830  34.8795 0002168  65.9619 294.1735 13.10416322309093
ONEWEB-0044             
1 45150U 20008V   26175.02802005 -.00000546  00000+0 -16008-2 0  9996
2 45150  87.8839  34.9051 0001759  78.6504 281.4821 13.10352668309377
ONEWEB-0045             
1 45151U 20008W   26175.25925430  .00000377  00000+0  10267-2 0  9991
2 45151  87.8890  19.6521 0001743  83.7559 276.3768 13.11414623311330
ONEWEB-0047             
1 45152U 20008X   26175.17381499 -.00000802  00000+0 -23329-2 0  9992
2 45152  87.8835  34.8752 0001663  89.0677 271.0641 13.10376389309116
ONEWEB-0048             
1 45153U 20008Y   26175.16888637 -.00000661  00000+0 -19306-2 0  9991
2 45153  87.8821  34.8959 0001628  86.4265 273.7049 13.10399099308726
ONEWEB-0049             
1 45154U 20008Z   26175.17212373 -.00001737  00000+0 -50120-2 0  9995
2 45154  87.8825  34.8861 0001783  94.1146 266.0186 13.10376331308944
ONEWEB-0051             
1 45155U 20008AA  26175.25756569  .00000857  00000+0  23823-2 0  9995
2 45155  87.8875  19.6594 0001475  87.6807 272.4490 13.11416066312016
ONEWEB-0052             
1 45156U 20008AB  26175.11638916  .00003415  00000+0  97491-2 0  9991
2 45156  87.8822  34.8834 0002218  74.2598 285.8774 13.10334651308847
